GORIZONT 1 [-]          
1 11158U 78118A   22273.24339289 -.00000055  00000+0  00000+0 0  9996
2 11158  11.0788 201.2747 3455376 286.9475  38.6515  1.00307910109346
GORIZONT 2 [-]          
1 11440U 79062A   22274.13092664  .00000025  00000+0  00000+0 0  9997
2 11440   9.0446 300.6182 0003618 263.6436 274.0560  1.00287743124433
GORIZONT 3 [-]          
1 11648U 79105A   22274.57812213 -.00000028  00000+0  00000+0 0  9997
2 11648   9.2041 302.0563 0014135 215.7454 126.6556  1.00345408108891
GORIZONT 4 [-]          
1 11841U 80049A   22274.13101385  .00000035  00000+0  00000+0 0  9991
2 11841  10.3580 307.8715 0001006 237.2693 294.3238  0.98627798220184
GORIZONT 5 [-]          
1 13092U 82020A   22274.59741707 -.00000067  00000+0  00000+0 0  9996
2 13092  11.3532 313.1661 0034529 213.6684 160.4211  0.98531096108258
GORIZONT 6 [-]          
1 13624U 82103A   22274.37590473  .00000094  00000+0  00000+0 0  9996
2 13624  10.2763 313.2118 0002587 204.2392 178.1879  1.00293798107367
GORIZONT 7 [-]          
1 14160U 83066A   22273.77896951 -.00000049  00000+0  00000+0 0  9995
2 14160  11.9449 322.5860 0008798 313.3535  53.3335  0.98347718141424
GORIZONT 8 [-]          
1 14532U 83118A   22274.21419457 -.00000029  00000+0  00000+0 0  9996
2 14532  12.1195 324.4383 0030443 151.5256 241.3782  0.98268828107198
GORIZONT 9 [-]          
1 14940U 84041A   22274.57314007 -.00000138  00000+0  00000+0 0  9990
2 14940  11.3101 322.4655 0004989 210.2977 123.8190  1.00223583108357
GORIZONT 10 [-]         
1 15144U 84078A   22274.38856772  .00000111  00000+0  00000+0 0  9996
2 15144  11.4064 323.4942 0001020 164.8943 221.1225  1.00223884140994
GORIZONT 11 [-]         
1 15484U 85007A   22274.59548059 -.00000328  00000+0  00000+0 0  9996
2 15484  11.5888 325.4730 0004467 159.3814 199.8357  1.00381199139042
GORIZONT 12 [-]         
1 16769U 86044A   22274.20234193  .00000048  00000+0  00000+0 0  9992
2 16769  12.2122 330.8523 0002122 209.0293 322.0439  1.00205962133675
GORIZONT 13 [-]         
1 17083U 86090A   22274.33220181 -.00000081  00000+0  00000+0 0  9997
2 17083  14.0936 338.0311 0012321 339.5368  39.0374  0.96725945105547
GORIZONT 14 [-]         
1 17969U 87040A   22273.86367713 -.00000036  00000+0  00000+0 0  9996
2 17969  13.0319 329.4293 0032323 175.4352 252.4177  0.97657643106623
GORIZONT 15 [-]         
1 19017U 88028A   22274.33230593 -.00000067  00000+0  00000+0 0  9991
2 19017  14.3854 340.8519 0038198 157.3041 218.1405  0.97827249106258
GORIZONT 16 [-]         
1 19397U 88071A   22274.29219654  .00000005  00000+0  00000+0 0  9991
2 19397  13.2358 339.5363 0013580  67.7200 311.2645  0.99966692124694
GORIZONT 17 [-]         
1 19765U 89004A   22273.90335924 -.00000186  00000+0  00000+0 0  9994
2 19765  13.7856 342.8877 0023968 135.0501 216.4604  0.99068905122141
GORIZONT 18 [-]         
1 20107U 89052A   22273.85618714  .00000071  00000+0  00000+0 0  9996
2 20107  13.8303 344.1468 0033060 318.5592  80.5744  0.99397015120942
GORIZONT 19 [-]         
1 20263U 89081A   22273.85629499  .00000000  00000+0  00000+0 0  9995
2 20263  13.5601 343.3323 0004410 202.2846 193.9002  1.00350063120909
GORIZONT 20 [-]         
1 20659U 90054A   22274.04493839 -.00000290  00000+0  00000+0 0  9997
2 20659  13.9985 346.1543 0007263 166.9141 329.1212  1.00259393118104
GORIZONT 21 [-]         
1 20923U 90094A   22274.17522262 -.00000270  00000+0  00000+0 0  9990
2 20923  14.0125 346.9236 0005510 196.3087 173.4608  1.00376184116860
GORIZONT 22 [-]         
1 20953U 90102A   22274.56163321 -.00000290  00000+0  00000+0 0  9995
2 20953  13.9711 347.2885 0002296  35.4260 330.5763  1.00266989116825
GORIZONT 23 [-]         
1 21533U 91046A   22274.51577111 -.00000275  00000+0  00000+0 0  9992
2 21533  14.7361 351.4405 0002645 302.1596  60.7278  0.98911623 33299
GORIZONT 24 [-]         
1 21759U 91074A   22274.51868095 -.00000200  00000+0  00000+0 0  9995
2 21759  14.8927 353.3462 0018060 223.0167 160.1425  0.98445407111620
GORIZONT 25 [-]         
1 21922U 92017A   22274.03945346 -.00000287  00000+0  00000+0 0  9992
2 21922  14.4348 352.6765 0029095  84.7292 269.0387  0.99855926111408
GORIZONT 26 [-]         
1 22041U 92043A   22274.59471192 -.00000143  00000+0  00000+0 0  9999
2 22041  14.6070 354.6777 0031063 233.4665  98.2893  0.99241482110022
GORIZONT 27 [-]         
1 22245U 92082A   22273.79007806  .00000035  00000+0  00000+0 0  9995
2 22245  14.5237 354.2749 0010985  14.2750 346.7723  1.00141812113549
GORIZONT 28 [-]         
1 22880U 93069A   22274.56658425 -.00000325  00000+0  00000+0 0  9994
2 22880  14.6681 358.1312 0035332 133.9192 227.7671  0.99658569105639
GORIZONT 29 [-]         
1 22907U 93072A   22273.97265800 -.00000145  00000+0  00000+0 0  9993
2 22907  14.5799 357.5958 0008591 348.3656   0.7230  1.00163363105592
GORIZONT 30 [-]         
1 23108U 94030A   22274.56540066 -.00000260  00000+0  00000+0 0  9996
2 23108  14.5930 358.4958 0002796 162.5975 197.7018  1.00272837103916
GORIZONT 31 [-]         
1 23775U 96005A   22274.40257753  .00000059  00000+0  00000+0 0  9996
2 23775  14.5111   4.7153 0018921 199.9107 146.9620  0.99895738 97514
GORIZONT 32 [-]         
1 23880U 96034A   22274.49177425  .00000101  00000+0  00000+0 0  9999
2 23880  14.4605   5.2303 0007816 359.0795  24.8667  1.00180217 96464
GORIZONT 33 [-]         
1 26372U 00029A   22274.11313775 -.00000215  00000+0  00000+0 0  9993
2 26372  13.1851  16.4301 0004367 105.9904 260.5465  1.00308449 81842
